{"type": "FeatureCollection", "features": [{"type": "Feature", "properties": {"norad_id": 37846, "name": "GSAT0101 (GALILEO-PFM)", "group": "galileo", "lat": 9.832383833565421, "lon": 160.63214603626233, "alt_km": 23227.368588663794, "timestamp": "2025-12-03T04:52:29.899911+00:00", "meta": {"OBJECT_NAME": "GSAT0101 (GALILEO-PFM)", "OBJECT_ID": "2011-060A", "EPOCH": "2025-12-01T04:03:41.055552", "MEAN_MOTION": 1.70475524, "ECCENTRICITY": 0.00027506, "INCLINATION": 57.0554, "RA_OF_ASC_NODE": 347.1343, "ARG_OF_PERICENTER": 309.7017, "MEAN_ANOMALY": 50.3167, "EPHEMERIS_TYPE": 0, "CLASSIFICATION_TYPE": "U", "NORAD_CAT_ID": 37846, "ELEMENT_SET_NO": 999, "REV_AT_EPOCH": 8774, "BSTAR": 0, "MEAN_MOTION_DOT": -5.9e-07, "MEAN_MOTION_DDOT": 0}, "tle": {"line1": "1 37846U 11060A   25335.16922518 -.00000059  00000+0  00000+0 0  9991", "line2": "2 37846  57.0554 347.1343 0002750 309.7017  50.3167  1.70475524 87745"}}, "geometry": {"type": "Point", "coordinates": [160.63214603626233, 9.832383833565421]}}, {"type": "Feature", "properties": {"norad_id": 37847, "name": "GSAT0102 (GALILEO-FM2)", "group": "galileo", "lat": -27.726193396029213, "lon": -172.98269874638913, "alt_km": 23226.172600059257, "timestamp": "2025-12-03T04:52:29.899934+00:00", "meta": {"OBJECT_NAME": "GSAT0102 (GALILEO-FM2)", "OBJECT_ID": "2011-060B", "EPOCH": "2025-12-02T06:27:38.704608", "MEAN_MOTION": 1.70475743, "ECCENTRICITY": 0.00047518, "INCLINATION": 57.0559, "RA_OF_ASC_NODE": 347.1049, "ARG_OF_PERICENTER": 306.1199, "MEAN_ANOMALY": 54.4344, "EPHEMERIS_TYPE": 0, "CLASSIFICATION_TYPE": "U", "NORAD_CAT_ID": 37847, "ELEMENT_SET_NO": 999, "REV_AT_EPOCH": 8777, "BSTAR": 0, "MEAN_MOTION_DOT": -6.2e-07, "MEAN_MOTION_DDOT": 0}, "tle": {"line1": "1 37847U 11060B   25336.26919797 -.00000062  00000+0  00000+0 0  9993", "line2": "2 37847  57.0559 347.1049 0004751 306.1199  54.4344  1.70475743 87777"}}, "geometry": {"type": "Point", "coordinates": [-172.98269874638913, -27.726193396029213]}}, {"type": "Feature", "properties": {"norad_id": 38857, "name": "GSAT0103 (GALILEO-FM3)", "group": "galileo", "lat": 29.293910312983133, "lon": -95.61246556600653, "alt_km": 23222.469725081133, "timestamp": "2025-12-03T04:52:29.899949+00:00", "meta": {"OBJECT_NAME": "GSAT0103 (GALILEO-FM3)", "OBJECT_ID": "2012-055A", "EPOCH": "2025-12-01T05:01:21.613152", "MEAN_MOTION": 1.70473256, "ECCENTRICITY": 0.00023005, "INCLINATION": 55.6823, "RA_OF_ASC_NODE": 106.9832, "ARG_OF_PERICENTER": 267.1494, "MEAN_ANOMALY": 92.7944, "EPHEMERIS_TYPE": 0, "CLASSIFICATION_TYPE": "U", "NORAD_CAT_ID": 38857, "ELEMENT_SET_NO": 999, "REV_AT_EPOCH": 8163, "BSTAR": 0, "MEAN_MOTION_DOT": 4.2e-07, "MEAN_MOTION_DDOT": 0}, "tle": {"line1": "1 38857U 12055A   25335.20927793  .00000042  00000+0  00000+0 0  9995", "line2": "2 38857  55.6823 106.9832 0002300 267.1494  92.7944  1.70473256 81637"}}, "geometry": {"type": "Point", "coordinates": [-95.61246556600653, 29.293910312983133]}}, {"type": "Feature", "properties": {"norad_id": 40128, "name": "GSAT0201 (GALILEO 5)", "group": "galileo", "lat": -8.371040051519469, "lon": -85.89545784913207, "alt_km": 26202.303384409464, "timestamp": "2025-12-03T04:52:29.899963+00:00", "meta": {"OBJECT_NAME": "GSAT0201 (GALILEO 5)", "OBJECT_ID": "2014-050A", "EPOCH": "2025-11-28T09:00:06.762528", "MEAN_MOTION": 1.85519533, "ECCENTRICITY": 0.16464881, "INCLINATION": 49.0938, "RA_OF_ASC_NODE": 281.6492, "ARG_OF_PERICENTER": 171.7362, "MEAN_ANOMALY": 191.3851, "EPHEMERIS_TYPE": 0, "CLASSIFICATION_TYPE": "U", "NORAD_CAT_ID": 40128, "ELEMENT_SET_NO": 999, "REV_AT_EPOCH": 7459, "BSTAR": 0, "MEAN_MOTION_DOT": -4.8e-07, "MEAN_MOTION_DDOT": 0}, "tle": {"line1": "1 40128U 14050A   25332.37507827 -.00000048  00000+0  00000+0 0  9990", "line2": "2 40128  49.0938 281.6492 1646488 171.7362 191.3851  1.85519533 74599"}}, "geometry": {"type": "Point", "coordinates": [-85.89545784913207, -8.371040051519469]}}, {"type": "Feature", "properties": {"norad_id": 40129, "name": "GSAT0202 (GALILEO 6)", "group": "galileo", "lat": 1.5348987266693541, "lon": 99.18123134745106, "alt_km": 17001.98739807436, "timestamp": "2025-12-03T04:52:29.899975+00:00", "meta": {"OBJECT_NAME": "GSAT0202 (GALILEO 6)", "OBJECT_ID": "2014-050B", "EPOCH": "2025-11-29T17:01:27.924672", "MEAN_MOTION": 1.85520097, "ECCENTRICITY": 0.1647266, "INCLINATION": 49.1079, "RA_OF_ASC_NODE": 280.6784, "ARG_OF_PERICENTER": 172.5408, "MEAN_ANOMALY": 190.2825, "EPHEMERIS_TYPE": 0, "CLASSIFICATION_TYPE": "U", "NORAD_CAT_ID": 40129, "ELEMENT_SET_NO": 999, "REV_AT_EPOCH": 7678, "BSTAR": 0, "MEAN_MOTION_DOT": -5.4e-07, "MEAN_MOTION_DDOT": 0}, "tle": {"line1": "1 40129U 14050B   25333.70935098 -.00000054  00000+0  00000+0 0  9991", "line2": "2 40129  49.1079 280.6784 1647266 172.5408 190.2825  1.85520097 76784"}}, "geometry": {"type": "Point", "coordinates": [99.18123134745106, 1.5348987266693541]}}, {"type": "Feature", "properties": {"norad_id": 40544, "name": "GSAT0203 (GALILEO 7)", "group": "galileo", "lat": -43.67585876524064, "lon": -51.67355487576999, "alt_km": 23211.631766429775, "timestamp": "2025-12-03T04:52:29.899986+00:00", "meta": {"OBJECT_NAME": "GSAT0203 (GALILEO 7)", "OBJECT_ID": "2015-017A", "EPOCH": "2025-12-02T02:53:32.217792", "MEAN_MOTION": 1.70475823, "ECCENTRICITY": 0.00065177, "INCLINATION": 56.8491, "RA_OF_ASC_NODE": 346.9701, "ARG_OF_PERICENTER": 267.4937, "MEAN_ANOMALY": 92.4718, "EPHEMERIS_TYPE": 0, "CLASSIFICATION_TYPE": "U", "NORAD_CAT_ID": 40544, "ELEMENT_SET_NO": 999, "REV_AT_EPOCH": 6584, "BSTAR": 0, "MEAN_MOTION_DOT": -6.2e-07, "MEAN_MOTION_DDOT": 0}, "tle": {"line1": "1 40544U 15017A   25336.12051178 -.00000062  00000+0  00000+0 0  9992", "line2": "2 40544  56.8491 346.9701 0006517 267.4937  92.4718  1.70475823 65840"}}, "geometry": {"type": "Point", "coordinates": [-51.67355487576999, -43.67585876524064]}}, {"type": "Feature", "properties": {"norad_id": 40545, "name": "GSAT0204 (GALILEO 8)", "group": "galileo", "lat": 26.68278529447423, "lon": 147.78902607363773, "alt_km": 23225.939812518583, "timestamp": "2025-12-03T04:52:29.899998+00:00", "meta": {"OBJECT_NAME": "GSAT0204 (GALILEO 8)", "OBJECT_ID": "2015-017B", "EPOCH": "2025-12-01T18:56:42.196992", "MEAN_MOTION": 1.70475405, "ECCENTRICITY": 0.00062658, "INCLINATION": 56.854, "RA_OF_ASC_NODE": 346.9967, "ARG_OF_PERICENTER": 260.0885, "MEAN_ANOMALY": 99.8817, "EPHEMERIS_TYPE": 0, "CLASSIFICATION_TYPE": "U", "NORAD_CAT_ID": 40545, "ELEMENT_SET_NO": 999, "REV_AT_EPOCH": 2888, "BSTAR": 0, "MEAN_MOTION_DOT": -6.1e-07, "MEAN_MOTION_DDOT": 0}, "tle": {"line1": "1 40545U 15017B   25335.78937728 -.00000061  00000+0  00000+0 0  9997", "line2": "2 40545  56.8540 346.9967 0006265 260.0885  99.8817  1.70475405 28881"}}, "geometry": {"type": "Point", "coordinates": [147.78902607363773, 26.68278529447423]}}, {"type": "Feature", "properties": {"norad_id": 40889, "name": "GSAT0205 (GALILEO 9)", "group": "galileo", "lat": -50.470582083786724, "lon": 169.0704608079997, "alt_km": 23233.42297936934, "timestamp": "2025-12-03T04:52:29.900010+00:00", "meta": {"OBJECT_NAME": "GSAT0205 (GALILEO 9)", "OBJECT_ID": "2015-045A", "EPOCH": "2025-12-02T03:27:57.508704", "MEAN_MOTION": 1.70472886, "ECCENTRICITY": 0.00058353, "INCLINATION": 55.0073, "RA_OF_ASC_NODE": 227.0512, "ARG_OF_PERICENTER": 38.3993, "MEAN_ANOMALY": 321.7247, "EPHEMERIS_TYPE": 0, "CLASSIFICATION_TYPE": "U", "NORAD_CAT_ID": 40889, "ELEMENT_SET_NO": 999, "REV_AT_EPOCH": 6365, "BSTAR": 0, "MEAN_MOTION_DOT": 3.5e-07, "MEAN_MOTION_DDOT": 0}, "tle": {"line1": "1 40889U 15045A   25336.14441561  .00000035  00000+0  00000+0 0  9995", "line2": "2 40889  55.0073 227.0512 0005835  38.3993 321.7247  1.70472886 63655"}}, "geometry": {"type": "Point", "coordinates": [169.0704608079997, -50.470582083786724]}}, {"type": "Feature", "properties": {"norad_id": 40890, "name": "GSAT0206 (GALILEO 10)", "group": "galileo", "lat": 20.707690942842465, "lon": 31.686753358739054, "alt_km": 23225.540664242963, "timestamp": "2025-12-03T04:52:29.900021+00:00", "meta": {"OBJECT_NAME": "GSAT0206 (GALILEO 10)", "OBJECT_ID": "2015-045B", "EPOCH": "2025-12-01T18:40:58.746144", "MEAN_MOTION": 1.70473031, "ECCENTRICITY": 0.0003438, "INCLINATION": 55.0064, "RA_OF_ASC_NODE": 227.0564, "ARG_OF_PERICENTER": 30.2471, "MEAN_ANOMALY": 329.8532, "EPHEMERIS_TYPE": 0, "CLASSIFICATION_TYPE": "U", "NORAD_CAT_ID": 40890, "ELEMENT_SET_NO": 999, "REV_AT_EPOCH": 6367, "BSTAR": 0, "MEAN_MOTION_DOT": 3.4e-07, "MEAN_MOTION_DDOT": 0}, "tle": {"line1": "1 40890U 15045B   25335.77845771  .00000034  00000+0  00000+0 0  9995", "line2": "2 40890  55.0064 227.0564 0003438  30.2471 329.8532  1.70473031 63674"}}, "geometry": {"type": "Point", "coordinates": [31.686753358739054, 20.707690942842465]}}, {"type": "Feature", "properties": {"norad_id": 41174, "name": "GSAT0209 (GALILEO 12)", "group": "galileo", "lat": 40.05528634887163, "lon": 141.61319255891584, "alt_km": 23213.19347372952, "timestamp": "2025-12-03T04:52:29.900033+00:00", "meta": {"OBJECT_NAME": "GSAT0209 (GALILEO 12)", "OBJECT_ID": "2015-079A", "EPOCH": "2025-12-01T22:43:10.411392", "MEAN_MOTION": 1.70474306, "ECCENTRICITY": 0.0002352, "INCLINATION": 55.7062, "RA_OF_ASC_NODE": 106.6773, "ARG_OF_PERICENTER": 357.4206, "MEAN_ANOMALY": 2.5431, "EPHEMERIS_TYPE": 0, "CLASSIFICATION_TYPE": "U", "NORAD_CAT_ID": 41174, "ELEMENT_SET_NO": 999, "REV_AT_EPOCH": 6141, "BSTAR": 0, "MEAN_MOTION_DOT": 3.5e-07, "MEAN_MOTION_DDOT": 0}, "tle": {"line1": "1 41174U 15079A   25335.94664828  .00000035  00000+0  00000+0 0  9990", "line2": "2 41174  55.7062 106.6773 0002352 357.4206   2.5431  1.70474306 61412"}}, "geometry": {"type": "Point", "coordinates": [141.61319255891584, 40.05528634887163]}}]}